[{"OBJECT_NAME":"STARLINK-5428","OBJECT_ID":"2022-175AU","EPOCH":"2026-03-09T07:13:37.041024","MEAN_MOTION":15.08841997,"ECCENTRICITY":0.00014685,"INCLINATION":53.2185,"RA_OF_ASC_NODE":35.6382,"ARG_OF_PERICENTER":95.1963,"MEAN_ANOMALY":264.9197,"EPHEMERIS_TYPE":0,"CLASSIFICATION_TYPE":"U","NORAD_CAT_ID":54800,"ELEMENT_SET_NO":999,"REV_AT_EPOCH":18000,"BSTAR":0.0001915204,"MEAN_MOTION_DOT":2.762e-5,"MEAN_MOTION_DDOT":0},{"OBJECT_NAME":"CZ-4B DEB","OBJECT_ID":"2004-035J","EPOCH":"2026-03-07T20:16:16.859712","MEAN_MOTION":15.09572175,"ECCENTRICITY":0.00105031,"INCLINATION":97.5432,"RA_OF_ASC_NODE":82.067,"ARG_OF_PERICENTER":356.2804,"MEAN_ANOMALY":3.8346,"EPHEMERIS_TYPE":0,"CLASSIFICATION_TYPE":"U","NORAD_CAT_ID":29042,"ELEMENT_SET_NO":999,"REV_AT_EPOCH":69625,"BSTAR":0.00031812935,"MEAN_MOTION_DOT":5.052e-5,"MEAN_MOTION_DDOT":0}]
